start=new Date('2023-07-01T00:00:00.000Z').valueOf();
sats=[{"RA_OF_ASC_NODE":"204.2451","CLASSIFICATION_TYPE":"U","RCS_SIZE":"LARGE","REV_AT_EPOCH":"4965","COUNTRY_CODE":"US","BSTAR":"0.00007671300000","OBJECT_ID":"2022-097BA","OBJECT_NAME":"STARLINK-4527","LAUNCH_DATE":"2022-08-10","GP_ID":"234615583","SEMIMAJOR_AXIS":"6917.883","DECAY_DATE":null,"REF_FRAME":"TEME","APOAPSIS":"540.448","ELEMENT_SET_NO":"999","MEAN_ELEMENT_THEORY":"SGP4","PERIAPSIS":"539.049","MEAN_ANOMALY":"278.1292","FILE":"3945365","SITE":"AFETR","MEAN_MOTION_DOT":"0.00000933","NORAD_CAT_ID":"53436","EPOCH":"2023-06-29T00:00:27.880416","TLE_LINE2":"2 53436  53.2156 204.2451 0001011  81.9815 278.1292 15.08839070 49654","ARG_OF_PERICENTER":"81.9815","TLE_LINE1":"1 53436U 22097BA  23180.00032269  .00000933  00000-0  76713-4 0  9990","CENTER_NAME":"EARTH","TIME_SYSTEM":"UTC","ECCENTRICITY":"0.00010110","EPHEMERIS_TYPE":"0","PERIOD":"95.438","OBJECT_TYPE":"PAYLOAD","INCLINATION":"53.2156","MEAN_MOTION":"15.08839070","MEAN_MOTION_DDOT":"0.0000000000000"},{"CLASSIFICATION_TYPE":"U","RA_OF_ASC_NODE":"206.0069","COUNTRY_CODE":"US","BSTAR":"0.00008035500000","OBJECT_ID":"2022-097BC","RCS_SIZE":"LARGE","REV_AT_EPOCH":"4959","GP_ID":"234612894","SEMIMAJOR_AXIS":"6917.882","DECAY_DATE":null,"OBJECT_NAME":"STARLINK-4526","LAUNCH_DATE":"2022-08-10","MEAN_ELEMENT_THEORY":"SGP4","REF_FRAME":"TEME","APOAPSIS":"540.482","ELEMENT_SET_NO":"999","FILE":"3945264","SITE":"AFETR","PERIAPSIS":"539.011","MEAN_ANOMALY":"279.6846","ARG_OF_PERICENTER":"80.4267","TLE_LINE1":"1 53438U 22097BC  23179.59920114  .00000991  00000-0  80355-4 0  9990","CENTER_NAME":"EARTH","TIME_SYSTEM":"UTC","EPHEMERIS_TYPE":"0","ECCENTRICITY":"0.00010630","MEAN_MOTION_DOT":"0.00000991","NORAD_CAT_ID":"53438","EPOCH":"2023-06-28T14:22:50.978496","TLE_LINE2":"2 53438  53.2155 206.0069 0001063  80.4267 279.6846 15.08839602 49597","OBJECT_TYPE":"PAYLOAD","MEAN_MOTION":"15.08839602","INCLINATION":"53.2155","MEAN_MOTION_DDOT":"0.0000000000000","PERIOD":"95.438"},{"MEAN_MOTION_DDOT":"0.0000000000000","MEAN_MOTION":"15.07204548","INCLINATION":"53.2155","OBJECT_TYPE":"PAYLOAD","PERIOD":"95.541","ECCENTRICITY":"0.00012150","EPHEMERIS_TYPE":"0","CENTER_NAME":"EARTH","TIME_SYSTEM":"UTC","TLE_LINE1":"1 53439U 22097BD  23179.34280345  .00000365  00000-0  42612-4 0  9998","ARG_OF_PERICENTER":"86.3509","TLE_LINE2":"2 53439  53.2155 207.2461 0001215  86.3509 273.7621 15.07204548 49556","EPOCH":"2023-06-28T08:13:38.218080","NORAD_CAT_ID":"53439","MEAN_MOTION_DOT":"0.00000365","SITE":"AFETR","FILE":"3945023","MEAN_ANOMALY":"273.7621","PERIAPSIS":"543.908","MEAN_ELEMENT_THEORY":"SGP4","ELEMENT_SET_NO":"999","APOAPSIS":"545.590","REF_FRAME":"TEME","GP_ID":"234607529","DECAY_DATE":null,"SEMIMAJOR_AXIS":"6922.884","LAUNCH_DATE":"2022-08-10","OBJECT_NAME":"STARLINK-4519","OBJECT_ID":"2022-097BD","BSTAR":"0.00004261200000","COUNTRY_CODE":"US","RCS_SIZE":"LARGE","REV_AT_EPOCH":"4955","CLASSIFICATION_TYPE":"U","RA_OF_ASC_NODE":"207.2461"},{"RA_OF_ASC_NODE":"302.4974","CLASSIFICATION_TYPE":"U","REV_AT_EPOCH":"4873","RCS_SIZE":"LARGE","COUNTRY_CODE":"US","OBJECT_ID":"2022-099A","BSTAR":"0.00038881000000","OBJECT_NAME":"STARLINK-4415","LAUNCH_DATE":"2022-08-12","GP_ID":"234639666","SEMIMAJOR_AXIS":"6941.185","DECAY_DATE":null,"APOAPSIS":"564.545","REF_FRAME":"TEME","ELEMENT_SET_NO":"999","MEAN_ELEMENT_THEORY":"SGP4","MEAN_ANOMALY":"259.0424","PERIAPSIS":"561.555","FILE":"3946320","SITE":"AFWTR","NORAD_CAT_ID":"53465","MEAN_MOTION_DOT":"0.00004937","TLE_LINE2":"2 53465  97.6555 302.4974 0002154 101.1043 259.0424 15.01247506 48732","EPOCH":"2023-06-30T14:31:28.966368","TLE_LINE1":"1 53465U 22099A   23181.60519637  .00004937  00000-0  38881-3 0  9991","ARG_OF_PERICENTER":"101.1043","ECCENTRICITY":"0.00021540","EPHEMERIS_TYPE":"0","CENTER_NAME":"EARTH","TIME_SYSTEM":"UTC","PERIOD":"95.920","OBJECT_TYPE":"PAYLOAD","MEAN_MOTION_DDOT":"0.0000000000000","INCLINATION":"97.6555","MEAN_MOTION":"15.01247506"},{"PERIOD":"95.920","OBJECT_TYPE":"PAYLOAD","MEAN_MOTION":"15.01257039","INCLINATION":"97.6547","MEAN_MOTION_DDOT":"0.0000000000000","MEAN_MOTION_DOT":"0.00001417","NORAD_CAT_ID":"53466","EPOCH":"2023-06-29T04:53:15.023904","TLE_LINE2":"2 53466  97.6547 301.1161 0001957 103.8596 256.2846 15.01257039 48515","ARG_OF_PERICENTER":"103.8596","TLE_LINE1":"1 53466U 22099B   23180.20364611  .00001417  00000-0  11492-3 0  9996","TIME_SYSTEM":"UTC","CENTER_NAME":"EARTH","EPHEMERIS_TYPE":"0","ECCENTRICITY":"0.00019570","PERIAPSIS":"561.663","MEAN_ANOMALY":"256.2846","FILE":"3945525","SITE":"AFWTR","REF_FRAME":"TEME","APOAPSIS":"564.379","ELEMENT_SET_NO":"999","MEAN_ELEMENT_THEORY":"SGP4","OBJECT_NAME":"STARLINK-4398","LAUNCH_DATE":"2022-08-12","DECAY_DATE":null,"GP_ID":"234619344","SEMIMAJOR_AXIS":"6941.156","RCS_SIZE":"LARGE","REV_AT_EPOCH":"4851","COUNTRY_CODE":"US","BSTAR":"0.00011492000000","OBJECT_ID":"2022-099B","RA_OF_ASC_NODE":"301.1161","CLASSIFICATION_TYPE":"U"},{"CLASSIFICATION_TYPE":"U","RA_OF_ASC_NODE":"302.7007","OBJECT_ID":"2022-099C","BSTAR":"-0.00016003000000","COUNTRY_CODE":"US","RCS_SIZE":"LARGE","REV_AT_EPOCH":"4873","DECAY_DATE":null,"GP_ID":"234639165","SEMIMAJOR_AXIS":"6943.584","LAUNCH_DATE":"2022-08-12","OBJECT_NAME":"STARLINK-4394","MEAN_ELEMENT_THEORY":"SGP4","ELEMENT_SET_NO":"999","APOAPSIS":"568.221","REF_FRAME":"TEME","SITE":"AFWTR","FILE":"3946320","MEAN_ANOMALY":"172.6639","PERIAPSIS":"562.678","EPHEMERIS_TYPE":"0","ECCENTRICITY":"0.00039920","TIME_SYSTEM":"UTC","CENTER_NAME":"EARTH","TLE_LINE1":"1 53467U 22099C   23181.58910829 -.00002072  00000-0 -16003-3 0  9990","ARG_OF_PERICENTER":"187.4526","TLE_LINE2":"2 53467  97.6552 302.7007 0003992 187.4526 172.6639 15.00469542 48738","EPOCH":"2023-06-30T14:08:18.956256","NORAD_CAT_ID":"53467","MEAN_MOTION_DOT":"-0.00002072","MEAN_MOTION_DDOT":"0.0000000000000","INCLINATION":"97.6552","MEAN_MOTION":"15.00469542","OBJECT_TYPE":"PAYLOAD","PERIOD":"95.970"},{"SEMIMAJOR_AXIS":"6941.160","GP_ID":"234613495","DECAY_DATE":null,"LAUNCH_DATE":"2022-08-12","OBJECT_NAME":"STARLINK-4400","MEAN_ELEMENT_THEORY":"SGP4","ELEMENT_SET_NO":"999","REF_FRAME":"TEME","APOAPSIS":"564.226","CLASSIFICATION_TYPE":"U","RA_OF_ASC_NODE":"300.8447","BSTAR":"0.00009607300000","OBJECT_ID":"2022-099D","COUNTRY_CODE":"US","REV_AT_EPOCH":"4847","RCS_SIZE":"LARGE","INCLINATION":"97.6556","MEAN_MOTION":"15.01255581","MEAN_MOTION_DDOT":"0.0000000000000","OBJECT_TYPE":"PAYLOAD","PERIOD":"95.920","SITE":"AFWTR","FILE":"3945296","PERIAPSIS":"561.825","MEAN_ANOMALY":"263.3764","CENTER_NAME":"EARTH","TIME_SYSTEM":"UTC","EPHEMERIS_TYPE":"0","ECCENTRICITY":"0.00017290","ARG_OF_PERICENTER":"96.7657","TLE_LINE1":"1 53468U 22099D   23179.93543091  .00001175  00000-0  96073-4 0  9997","EPOCH":"2023-06-28T22:27:01.230624","TLE_LINE2":"2 53468  97.6556 300.8447 0001729  96.7657 263.3764 15.01255581 48478","MEAN_MOTION_DOT":"0.00001175","NORAD_CAT_ID":"53468"},{"OBJECT_TYPE":"PAYLOAD","INCLINATION":"97.6549","MEAN_MOTION":"15.01261177","MEAN_MOTION_DDOT":"0.0000000000000","PERIOD":"95.919","ARG_OF_PERICENTER":"103.5193","TLE_LINE1":"1 53469U 22099E   23180.33139201  .00001523  00000-0  12312-3 0  9998","TIME_SYSTEM":"UTC","CENTER_NAME":"EARTH","ECCENTRICITY":"0.00016700","EPHEMERIS_TYPE":"0","MEAN_MOTION_DOT":"0.00001523","NORAD_CAT_ID":"53469","EPOCH":"2023-06-29T07:57:12.269664","TLE_LINE2":"2 53469  97.6549 301.2407 0001670 103.5193 256.6218 15.01261177 48533","FILE":"3945774","SITE":"AFWTR","PERIAPSIS":"561.849","MEAN_ANOMALY":"256.6218","MEAN_ELEMENT_THEORY":"SGP4","REF_FRAME":"TEME","APOAPSIS":"564.167","ELEMENT_SET_NO":"999","GP_ID":"234625756","SEMIMAJOR_AXIS":"6941.143","DECAY_DATE":null,"OBJECT_NAME":"STARLINK-4399","LAUNCH_DATE":"2022-08-12","COUNTRY_CODE":"US","BSTAR":"0.00012312000000","OBJECT_ID":"2022-099E","RCS_SIZE":"LARGE","REV_AT_EPOCH":"4853","CLASSIFICATION_TYPE":"U","RA_OF_ASC_NODE":"301.2407"},{"RCS_SIZE":"LARGE","REV_AT_EPOCH":"4847","BSTAR":"0.00012368000000","OBJECT_ID":"2022-099F","COUNTRY_CODE":"US","RA_OF_ASC_NODE":"300.8438","CLASSIFICATION_TYPE":"U","ELEMENT_SET_NO":"999","REF_FRAME":"TEME","APOAPSIS":"564.239","MEAN_ELEMENT_THEORY":"SGP4","LAUNCH_DATE":"2022-08-12","OBJECT_NAME":"STARLINK-4393","SEMIMAJOR_AXIS":"6941.160","GP_ID":"234620250","DECAY_DATE":null,"EPOCH":"2023-06-28T22:24:00.065376","TLE_LINE2":"2 53470  97.6552 300.8438 0001749  96.0436 264.0987 15.01255867 48479","MEAN_MOTION_DOT":"0.00001530","NORAD_CAT_ID":"53470","TIME_SYSTEM":"UTC","CENTER_NAME":"EARTH","EPHEMERIS_TYPE":"0","ECCENTRICITY":"0.00017490","ARG_OF_PERICENTER":"96.0436","TLE_LINE1":"1 53470U 22099F   23179.93333409  .00001530  00000-0  12368-3 0  9999","PERIAPSIS":"561.811","MEAN_ANOMALY":"264.0987","SITE":"AFWTR","FILE":"3945555","PERIOD":"95.920","INCLINATION":"97.6552","MEAN_MOTION":"15.01255867","MEAN_MOTION_DDOT":"0.0000000000000","OBJECT_TYPE":"PAYLOAD"},{"TLE_LINE2":"2 53471  97.6548 302.2218 0001455 102.7385 257.4002 15.01269202 48684","EPOCH":"2023-06-30T07:51:33.288768","NORAD_CAT_ID":"53471","MEAN_MOTION_DOT":"0.00000783","EPHEMERIS_TYPE":"0","ECCENTRICITY":"0.00014550","TIME_SYSTEM":"UTC","CENTER_NAME":"EARTH","TLE_LINE1":"1 53471U 22099G   23181.32746862  .00000783  00000-0  65548-4 0  9995","ARG_OF_PERICENTER":"102.7385","MEAN_ANOMALY":"257.4002","PERIAPSIS":"561.974","SITE":"AFWTR","FILE":"3946325","PERIOD":"95.919","MEAN_MOTION_DDOT":"0.0000000000000","MEAN_MOTION":"15.01269202","INCLINATION":"97.6548","OBJECT_TYPE":"PAYLOAD","RCS_SIZE":"LARGE","REV_AT_EPOCH":"4868","OBJECT_ID":"2022-099G","BSTAR":"0.00006554800000","COUNTRY_CODE":"US","RA_OF_ASC_NODE":"302.2218","CLASSIFICATION_TYPE":"U","ELEMENT_SET_NO":"999","APOAPSIS":"563.993","REF_FRAME":"TEME","MEAN_ELEMENT_THEORY":"SGP4","LAUNCH_DATE":"2022-08-12","OBJECT_NAME":"STARLINK-4316","SEMIMAJOR_AXIS":"6941.118","GP_ID":"234639820","DECAY_DATE":null}];
